#aV2023  7 11  0  0  0.00000000     288 DD+AD WGS84 FIT  NGA
## 2270 172800.00000000   300.00000000 60136 0.0000000000000
+   32     1  2  3  4  5  6  7  8  9 10 11 12 13 14 15 16 17
+         18 19 20 21 22 23 24 25 26 27 28 29 30 31 32  0  0
+          0  0  0  0  0  0  0  0  0  0  0  0  0  0  0  0  0
+          0  0  0  0  0  0  0  0  0  0  0  0  0  0  0  0  0
+          0  0  0  0  0  0  0  0  0  0  0  0  0  0  0  0  0
++         2  2  2  2  2  2  2  2  2  2  2  2  2  2  2  2  2
++         2  2  2  2  2  2  2  2  2  2  2  2  2  2  2  0  0
++         0  0  0  0  0  0  0  0  0  0  0  0  0  0  0  0  0
++         0  0  0  0  0  0  0  0  0  0  0  0  0  0  0  0  0
++         0  0  0  0  0  0  0  0  0  0  0  0  0  0  0  0  0
%c cc cc ccc ccc cccc cccc cccc cccc ccccc ccccc ccccc ccccc
%c cc cc ccc ccc cccc cccc cccc cccc ccccc ccccc ccccc ccccc
%f  0.0000000  0.000000000  0.00000000000  0.000000000000000
%f  0.0000000  0.000000000  0.00000000000  0.000000000000000
%i    0    0    0    0      0      0      0      0         0
%i    0    0    0    0      0      0      0      0         0
/*      NGA, ST. LOUIS,MO.                                  
/*   EPHEMERIS COMPUTED FROM 2 DAYS OF DATA                 
/*   EPOCHA v8 SMOOTHER                                     
/*   G2139 IERS2010 SATIGS SATAPC                           
*  2023  7 11  7 30  0.00000000
P  1   6353.950448 -17530.369116 -19114.630872    173.606842                    
V  1  21385.913874 -10053.755811  16961.397178     -0.019409                    
P  2  12037.667566 -19057.145476 -13420.424914   -577.324735                    
V  2  16228.821263  -7972.579287  25097.744049      0.038328                    
P  3  -4935.643426 -17984.150324 -19098.412324   -237.236227                    
V  3  20930.836445  11507.477345 -16250.649979      0.153843                    
P  4    180.308157 -26433.413168   1830.024258     92.495363                    
V  4   2960.176405  -2157.730683 -31771.402354      0.107971                    
P  5 -11749.828563  10334.493066  21296.062244   -134.451140                    
V  5 -23852.818138 -13552.721078  -6419.623455     -0.014661                    
P  6 -23306.983393   3323.940130 -12330.939031    578.946860                    
V  6  13073.502966  -8777.853093 -26856.216450     -0.033507                    
P  7 -10604.903108 -11922.963875  21744.449289    128.386634                    
V  7  23176.843396 -12864.882260   3861.717565     -0.107744                    
P  8   6706.370175 -23513.297332   9795.950681   -131.589146                    
V  8   3007.592526  12655.956712  28492.872677     -0.018618                    
P  9  -7582.721638 -23044.547547  10684.507093   -115.027430                    
V  9   2598.093475 -13707.725941 -27569.224902      0.092639                    
P 10  23973.985592  10753.835207  -4730.464189    -44.710830                    
V 10   4281.556495   4841.372829  31214.687842     -0.014982                    
P 11 -23147.616329  12818.771776   2017.194832   -271.162546                    
V 11  -3479.106237  -1313.376202 -31747.758202     -0.160581                    
P 12    117.297248  17363.206539 -20394.993490   -399.286366                    
V 12 -21165.482111 -13801.440736 -11958.939965     -0.046238                    
P 13 -13021.996773  17602.649388  14700.362655    545.587028                    
V 13    980.183113 -19137.932710  23698.763434      0.049755                    
P 14 -23062.695085 -13192.452056  -2040.262737    118.623055                    
V 14   -522.347279  -3985.530740  31232.678428      0.120700                    
P 15  -3427.364759  24587.495174   8613.127580     56.941942                    
V 15  -5079.582126 -11166.727342  28583.947423      0.035547                    
P 16  16206.934465  -5428.717434  20140.898652   -482.092696                    
V 16  20579.811050  16118.848669 -11595.373207      0.043441                    
P 17 -13407.072196  -8797.904997 -20720.431969    720.711613                    
V 17   3066.568723 -27136.596683   9447.502762      0.008784                    
P 18  12721.863113   9632.702035  21259.190530   -341.171167                    
V 18 -23577.055672  13016.396511   8049.331506     -0.143204                    
P 19 -15039.991510   -933.273020 -22078.642700    342.325080                    
V 19   3243.825753 -27297.073629  -1380.468099      0.051364                    
P 20 -20022.338806   4943.157574  16664.529396    423.298087                    
V 20 -18950.333506  -9751.256982 -20101.687295     -0.020555                    
P 21  14010.651253 -18736.372822 -11146.905692    152.276678                    
V 21  14486.832793  -5855.724814  27640.883165     -0.004163                    
P 22  15112.723076  -3382.890295 -21105.563051    511.057782                    
V 22  -2241.634629  27804.398467  -6088.040987      0.055825                    
P 23  19531.955616  16648.679602   7161.969271     42.025517                    
V 23  -8907.140950  -2609.161319  30214.132330      0.040887                    
P 24  -9170.095302  19775.917341 -15246.259911   -254.035480                    
V 24 -17279.818355   8302.638577  22103.558869     -0.124190                    
P 25  13417.441685  18959.933380 -13432.569772    455.386382                    
V 25 -15281.491148  -6486.453821 -24744.904136      0.023726                    
P 26  23465.453257   1618.785516  12544.770684    236.800147                    
V 26  13011.363726   9793.641282 -25020.575619     -0.011081                    
P 27  12662.179665 -14297.572927  18026.607617     -0.770386                    
V 27   1373.628816  23565.820813  17881.086615     -0.076720                    
P 28  22571.094388  -2202.485821 -13844.328413     82.898741                    
V 28 -13959.263822  10848.635109 -24522.669458     -0.011006                    
P 29   4303.238723  24242.705427   9780.198042   -605.229882                    
V 29  -3371.210369  12237.902025 -28791.803354     -0.008861                    
P 30 -18955.128488  -4985.406230  18157.837148   -505.109550                    
V 30  19232.358632 -12390.844271  16518.235785      0.027110                    
P 31  24645.215158  -9894.864192  -3700.157197   -219.847688                    
V 31  -2718.918058   4368.705142 -30872.219838     -0.006968                    
P 32  14758.912948   5709.704006 -21177.785479   -518.752058                    
V 32   -832.019699  27279.321353   6523.411571     -0.077645                    
EOF
